{
  "type": "FeatureCollection",
  "features": [
    {
      "type": "Feature",
      "properties": {
        "norad_id": 37902,
        "name": "FENGYUN 1C DEB",
        "group": "fengyun-1c-debris",
        "lat": 68.16654645610586,
        "lon": -177.2152616441665,
        "alt_km": 1161.6197957204522,
        "timestamp": "2025-12-10T16:57:11.925919+00:00",
        "meta_object_name": "FENGYUN 1C DEB",
        "meta_object_id": "1999-025ENB",
        "meta_epoch": "2025-12-07T14:03:14.833440",
        "meta_mean_motion": 13.52640367,
        "meta_eccentricity": 0.03237878,
        "meta_inclination": 98.6837,
        "meta_ra_of_asc_node": 202.4677,
        "meta_arg_of_pericenter": 320.2654,
        "meta_mean_anomaly": 37.5166,
        "meta_ephemeris_type": 0,
        "meta_classification_type": "U",
        "meta_norad_cat_id": 37902,
        "meta_element_set_no": 999,
        "meta_rev_at_epoch": 62907,
        "meta_bstar": 0.003775391,
        "meta_mean_motion_dot": 3.447e-05,
        "meta_mean_motion_ddot": 0,
        "tle_line1": "1 37902U 99025ENB 25341.58558835  .00003447  00000+0  37754-2 0  9993",
        "tle_line2": "2 37902  98.6837 202.4677 0323787 320.2654  37.5166 13.52640367629073"
      },
      "geometry": {
        "type": "Point",
        "coordinates": [
          -177.2152616441665,
          68.16654645610586
        ]
      }
    },
    {
      "type": "Feature",
      "properties": {
        "norad_id": 37906,
        "name": "FENGYUN 1C DEB",
        "group": "fengyun-1c-debris",
        "lat": -34.371493711763875,
        "lon": -161.11533745697815,
        "alt_km": 1086.3624438030502,
        "timestamp": "2025-12-10T16:57:11.925929+00:00",
        "meta_object_name": "FENGYUN 1C DEB",
        "meta_object_id": "1999-025ENF",
        "meta_epoch": "2025-12-10T09:03:53.057088",
        "meta_mean_motion": 13.80782296,
        "meta_eccentricity": 0.0162339,
        "meta_inclination": 99.6029,
        "meta_ra_of_asc_node": 25.2001,
        "meta_arg_of_pericenter": 34.7127,
        "meta_mean_anomaly": 347.1535,
        "meta_ephemeris_type": 0,
        "meta_classification_type": "U",
        "meta_norad_cat_id": 37906,
        "meta_element_set_no": 999,
        "meta_rev_at_epoch": 59423,
        "meta_bstar": 0.00082923,
        "meta_mean_motion_dot": 9.18e-06,
        "meta_mean_motion_ddot": 0,
        "tle_line1": "1 37906U 99025ENF 25344.37769742  .00000918  00000+0  82923-3 0  9997",
        "tle_line2": "2 37906  99.6029  25.2001 0162339  34.7127 347.1535 13.80782296594237"
      },
      "geometry": {
        "type": "Point",
        "coordinates": [
          -161.11533745697815,
          -34.371493711763875
        ]
      }
    },
    {
      "type": "Feature",
      "properties": {
        "norad_id": 37907,
        "name": "FENGYUN 1C DEB",
        "group": "fengyun-1c-debris",
        "lat": -25.048664351722515,
        "lon": -86.66735342773688,
        "alt_km": 774.6221775598933,
        "timestamp": "2025-12-10T16:57:11.925938+00:00",
        "meta_object_name": "FENGYUN 1C DEB",
        "meta_object_id": "1999-025ENG",
        "meta_epoch": "2025-12-06T02:20:17.868192",
        "meta_mean_motion": 14.23414222,
        "meta_eccentricity": 0.00637779,
        "meta_inclination": 99.0816,
        "meta_ra_of_asc_node": 92.8647,
        "meta_arg_of_pericenter": 203.9665,
        "meta_mean_anomaly": 155.854,
        "meta_ephemeris_type": 0,
        "meta_classification_type": "U",
        "meta_norad_cat_id": 37907,
        "meta_element_set_no": 999,
        "meta_rev_at_epoch": 83178,
        "meta_bstar": 0.0046814324,
        "meta_mean_motion_dot": 0.00010821,
        "meta_mean_motion_ddot": 0,
        "tle_line1": "1 37907U 99025ENG 25340.09742903  .00010821  00000+0  46814-2 0  9995",
        "tle_line2": "2 37907  99.0816  92.8647 0063777 203.9665 155.8540 14.23414222831788"
      },
      "geometry": {
        "type": "Point",
        "coordinates": [
          -86.66735342773688,
          -25.048664351722515
        ]
      }
    },
    {
      "type": "Feature",
      "properties": {
        "norad_id": 37908,
        "name": "FENGYUN 1C DEB",
        "group": "fengyun-1c-debris",
        "lat": -65.20458589910469,
        "lon": 176.05288678794727,
        "alt_km": 770.3533959393417,
        "timestamp": "2025-12-10T16:57:11.925948+00:00",
        "meta_object_name": "FENGYUN 1C DEB",
        "meta_object_id": "1999-025ENH",
        "meta_epoch": "2025-12-06T19:52:32.356992",
        "meta_mean_motion": 14.36573191,
        "meta_eccentricity": 0.00744593,
        "meta_inclination": 99.1512,
        "meta_ra_of_asc_node": 12.3562,
        "meta_arg_of_pericenter": 174.8209,
        "meta_mean_anomaly": 185.3763,
        "meta_ephemeris_type": 0,
        "meta_classification_type": "U",
        "meta_norad_cat_id": 37908,
        "meta_element_set_no": 999,
        "meta_rev_at_epoch": 63976,
        "meta_bstar": 0.0009644739,
        "meta_mean_motion_dot": 2.877e-05,
        "meta_mean_motion_ddot": 0,
        "tle_line1": "1 37908U 99025ENH 25340.82815228  .00002877  00000+0  96447-3 0  9998",
        "tle_line2": "2 37908  99.1512  12.3562 0074459 174.8209 185.3763 14.36573191639769"
      },
      "geometry": {
        "type": "Point",
        "coordinates": [
          176.05288678794727,
          -65.20458589910469
        ]
      }
    },
    {
      "type": "Feature",
      "properties": {
        "norad_id": 37912,
        "name": "FENGYUN 1C DEB",
        "group": "fengyun-1c-debris",
        "lat": 54.980387135037454,
        "lon": -60.148832335832545,
        "alt_km": 784.0119289682443,
        "timestamp": "2025-12-10T16:57:11.925958+00:00",
        "meta_object_name": "FENGYUN 1C DEB",
        "meta_object_id": "1999-025ENM",
        "meta_epoch": "2025-12-07T08:43:49.203552",
        "meta_mean_motion": 14.11418958,
        "meta_eccentricity": 0.00911955,
        "meta_inclination": 99.2302,
        "meta_ra_of_asc_node": 309.8335,
        "meta_arg_of_pericenter": 74.9151,
        "meta_mean_anomaly": 286.2087,
        "meta_ephemeris_type": 0,
        "meta_classification_type": "U",
        "meta_norad_cat_id": 37912,
        "meta_element_set_no": 999,
        "meta_rev_at_epoch": 77212,
        "meta_bstar": 0.0037768803,
        "meta_mean_motion_dot": 7.072e-05,
        "meta_mean_motion_ddot": 0,
        "tle_line1": "1 37912U 99025ENM 25341.36376393  .00007072  00000+0  37769-2 0  9991",
        "tle_line2": "2 37912  99.2302 309.8335 0091195  74.9151 286.2087 14.11418958772126"
      },
      "geometry": {
        "type": "Point",
        "coordinates": [
          -60.148832335832545,
          54.980387135037454
        ]
      }
    },
    {
      "type": "Feature",
      "properties": {
        "norad_id": 37918,
        "name": "FENGYUN 1C DEB",
        "group": "fengyun-1c-debris",
        "lat": -70.2587397998053,
        "lon": -39.62948971673304,
        "alt_km": 744.9224421409144,
        "timestamp": "2025-12-10T16:57:11.925968+00:00",
        "meta_object_name": "FENGYUN 1C DEB",
        "meta_object_id": "1999-025ENT",
        "meta_epoch": "2025-12-08T03:20:36.333888",
        "meta_mean_motion": 14.34353658,
        "meta_eccentricity": 0.0055221,
        "meta_inclination": 99.0272,
        "meta_ra_of_asc_node": 291.3959,
        "meta_arg_of_pericenter": 297.4796,
        "meta_mean_anomaly": 62.078,
        "meta_ephemeris_type": 0,
        "meta_classification_type": "U",
        "meta_norad_cat_id": 37918,
        "meta_element_set_no": 999,
        "meta_rev_at_epoch": 3476,
        "meta_bstar": 0.0011500332,
        "meta_mean_motion_dot": 3.242e-05,
        "meta_mean_motion_ddot": 0,
        "tle_line1": "1 37918U 99025ENT 25342.13930942  .00003242  00000+0  11500-2 0  9999",
        "tle_line2": "2 37918  99.0272 291.3959 0055221 297.4796  62.0780 14.34353658 34761"
      },
      "geometry": {
        "type": "Point",
        "coordinates": [
          -39.62948971673304,
          -70.2587397998053
        ]
      }
    },
    {
      "type": "Feature",
      "properties": {
        "norad_id": 37919,
        "name": "FENGYUN 1C DEB",
        "group": "fengyun-1c-debris",
        "lat": 22.099910790826165,
        "lon": 106.29726449445715,
        "alt_km": 827.8545081711127,
        "timestamp": "2025-12-10T16:57:11.925977+00:00",
        "meta_object_name": "FENGYUN 1C DEB",
        "meta_object_id": "1999-025ENU",
        "meta_epoch": "2025-12-05T06:37:21.613440",
        "meta_mean_motion": 14.26732064,
        "meta_eccentricity": 0.00501439,
        "meta_inclination": 99.0565,
        "meta_ra_of_asc_node": 276.9671,
        "meta_arg_of_pericenter": 37.6316,
        "meta_mean_anomaly": 322.8355,
        "meta_ephemeris_type": 0,
        "meta_classification_type": "U",
        "meta_norad_cat_id": 37919,
        "meta_element_set_no": 999,
        "meta_rev_at_epoch": 64802,
        "meta_bstar": 0.00094687739,
        "meta_mean_motion_dot": 2.276e-05,
        "meta_mean_motion_ddot": 0,
        "tle_line1": "1 37919U 99025ENU 25339.27594460  .00002276  00000+0  94688-3 0  9997",
        "tle_line2": "2 37919  99.0565 276.9671 0050143  37.6316 322.8355 14.26732064648025"
      },
      "geometry": {
        "type": "Point",
        "coordinates": [
          106.29726449445715,
          22.099910790826165
        ]
      }
    }
  ]
}